sat16141
1 16141U 85094D   20046.65592581  .00000001  00000-0 -50987-4 0  9997
2 16141  82.6090 287.8739 0013777 260.4645 163.3984 12.64349368585532
